NORAD_CAT_ID,OBJECT_NAME,OBJECT_TYPE,EPOCH,MEAN_MOTION,ECCENTRICITY,INCLINATION,RA_OF_ASC_NODE,ARG_OF_PERICENTER,MEAN_ANOMALY,BSTAR,MEAN_MOTION_DOT,MEAN_MOTION_DDOT,TLE_LINE0,TLE_LINE1,TLE_LINE2,SEMIMAJOR_AXIS,PERIOD,APOGEE,PERIGEE,DECAYED
52606.0,STARLINK-3928,PAYLOAD,2024-03-04 10:53:07,15.08851888,0.0001363,53.2176,339.723,92.7123,267.4025,0.00014748,2.061e-05,0.0,0 STARLINK-3928,1 52606U 22052J   24064.45355992  .00002061  00000-0  14748-3 0  9994,2 52606  53.2176 339.7230 0001363  92.7123 267.4025 15.08851888 99869,6917.844,95.437,540.652,538.766,0.0
52606.0,STARLINK-3928,PAYLOAD,2024-03-04 22:00:50,15.08841494,0.0001995,53.2199,337.6505,118.4747,241.6447,0.00012494,1.701e-05,0.0,0 STARLINK-3928,1 52606U 22052J   24064.91725082  .00001701  00000-0  12494-3 0  9992,2 52606  53.2199 337.6505 0001995 118.4747 241.6447 15.08841494 99937,6917.876,95.437,541.121,538.361,0.0
52606.0,STARLINK-3928,PAYLOAD,2024-03-05 01:11:36,15.08838564,0.0001394,53.2187,337.052,94.455,265.6602,7.3545e-05,8.83e-06,0.0,0 STARLINK-3928,1 52606U 22052J   24065.04973029  .00000883  00000-0  73545-4 0  9998,2 52606  53.2187 337.0520 0001394  94.4550 265.6602 15.08838564100322,6917.885,95.438,540.714,538.785,0.0
52606.0,STARLINK-3928,PAYLOAD,2024-03-05 04:22:22,15.08847865,0.0001524,53.2188,336.451,65.0996,295.0154,0.0002054,2.983e-05,0.0,0 STARLINK-3928,1 52606U 22052J   24065.18220527  .00002983  00000-0  20540-3 0  9990,2 52606  53.2188 336.4510 0001524  65.0996 295.0154 15.08847865 99979,6917.856,95.437,540.776,538.667,0.0
52606.0,STARLINK-3928,PAYLOAD,2024-03-06 01:02:23,15.08838762,0.0001464,53.2189,332.5858,90.6824,269.4335,-9.8962e-05,-1.863e-05,0.0,0 STARLINK-3928,1 52606U 22052J   24066.04333207 -.00001863  00000-0 -98962-4 0  9998,2 52606  53.2189 332.5858 0001464  90.6824 269.4335 15.08838762100109,6917.884,95.438,540.762,538.736,0.0
52606.0,STARLINK-3928,PAYLOAD,2024-03-07 02:28:34,15.08838422,0.000156,53.2186,327.8285,71.767,288.3492,4.5795e-05,4.41e-06,0.0,0 STARLINK-3928,1 52606U 22052J   24067.10317767  .00000441  00000-0  45795-4 0  9994,2 52606  53.2186 327.8285 0001560  71.7670 288.3492 15.08838422100638,6917.885,95.438,540.829,538.671,0.0
52606.0,STARLINK-3928,PAYLOAD,2024-03-07 10:25:30,15.0883763,0.0001395,53.2179,326.3422,80.5431,279.5719,3.3458e-05,2.45e-06,0.0,0 STARLINK-3928,1 52606U 22052J   24067.43437890  .00000245  00000-0  33458-4 0  9995,2 52606  53.2179 326.3422 0001395  80.5431 279.5719 15.08837630100315,6917.888,95.438,540.718,538.788,0.0
52606.0,STARLINK-3928,PAYLOAD,2024-03-08 00:44:04,15.08737757,0.0002293,53.219,323.667,42.7977,317.3193,-0.0011825,-0.00019007,0.0,0 STARLINK-3928,1 52606U 22052J   24068.03060748 -.00019007  00000-0 -11825-2 0  9996,2 52606  53.2190 323.6670 0002293  42.7977 317.3193 15.08737757100772,6918.193,95.444,541.644,538.472,0.0
52606.0,STARLINK-3928,PAYLOAD,2024-03-08 10:16:21,15.08796811,5.19e-05,53.2189,321.8807,144.286,215.8167,-0.00018796,-3.274e-05,0.0,0 STARLINK-3928,1 52606U 22052J   24068.42802623 -.00003274  00000-0 -18796-3 0  9999,2 52606  53.2189 321.8807 0000519 144.2860 215.8167 15.08796811100836,6918.012,95.44,540.236,539.518,0.0
52606.0,STARLINK-3928,PAYLOAD,2024-03-08 22:59:25,15.08839296,8.99e-05,53.2189,319.5016,100.1064,260.003,0.00043309,6.611e-05,0.0,0 STARLINK-3928,1 52606U 22052J   24068.95793522  .00006611  00000-0  43309-3 0  9998,2 52606  53.2189 319.5016 0000899 100.1064 260.0030 15.08839296100544,6917.883,95.438,540.369,539.126,0.0
52606.0,STARLINK-3928,PAYLOAD,2024-03-09 02:10:11,15.08848207,0.0001452,53.2182,318.9072,95.3554,264.7604,0.00055441,8.548e-05,0.0,0 STARLINK-3928,1 52606U 22052J   24069.09041188  .00008548  00000-0  55441-3 0  9999,2 52606  53.2182 318.9072 0001452  95.3554 264.7604 15.08848207100930,6917.855,95.437,540.725,538.716,0.0
52606.0,STARLINK-3928,PAYLOAD,2024-03-09 10:07:06,15.08862468,0.0001278,53.2183,317.4194,107.6235,252.4897,0.00072928,0.00011345,0.0,0 STARLINK-3928,1 52606U 22052J   24069.42160354  .00011345  00000-0  72928-3 0  9991,2 52606  53.2183 317.4194 0001278 107.6235 252.4897 15.08862468100987,6917.812,95.436,540.561,538.793,0.0
52606.0,STARLINK-3928,PAYLOAD,2024-03-09 22:50:10,15.0887414,4.8e-05,53.2177,315.0419,93.1478,266.957,0.00094239,0.00014756,0.0,0 STARLINK-3928,1 52606U 22052J   24069.95151023  .00014756  00000-0  94239-3 0  9990,2 52606  53.2177 315.0419 0000480  93.1478 266.9570 15.08874140100692,6917.776,95.435,539.973,539.309,0.0
52606.0,STARLINK-3928,PAYLOAD,2024-03-10 21:05:33,15.08867409,8.89e-05,53.2152,310.8771,78.3183,281.7909,-0.00010447,-1.951e-05,0.0,0 STARLINK-3928,1 52606U 22052J   24070.87886163 -.00001951  00000-0 -10447-3 0  9997,2 52606  53.2152 310.8771 0000889  78.3183 281.7909 15.08867409101209,6917.797,95.436,540.277,539.047,0.0
52606.0,STARLINK-3928,PAYLOAD,2024-03-10 22:40:57,15.08853847,0.0001111,53.2172,310.5813,111.6209,248.4901,-0.00026029,-4.429e-05,0.0,0 STARLINK-3928,1 52606U 22052J   24070.94510680 -.00004429  00000-0 -26029-3 0  9999,2 52606  53.2172 310.5813 0001111 111.6209 248.4901 15.08853847100846,6917.838,95.437,540.472,538.934,0.0
52606.0,STARLINK-3928,PAYLOAD,2024-03-11 01:51:43,15.08857523,0.0001283,53.217,309.9861,110.5104,249.6026,-0.00035836,-5.989e-05,0.0,0 STARLINK-3928,1 52606U 22052J   24071.07758268 -.00005989  00000-0 -35836-3 0  9998,2 52606  53.2170 309.9861 0001283 110.5104 249.6026 15.08857523101231,6917.827,95.436,540.579,538.804,0.0
52606.0,STARLINK-3928,PAYLOAD,2024-03-12 08:04:00,15.0887499,0.0001286,53.2169,304.3365,122.644,237.4676,-0.0011009,-0.00017783,0.0,0 STARLINK-3928,1 52606U 22052J   24072.33611887 -.00017783  00000-0 -11009-2 0  9993,2 52606  53.2169 304.3365 0001286 122.6440 237.4676 15.08874990101421,6917.773,95.435,540.528,538.749,0.0
52606.0,STARLINK-3928,PAYLOAD,2024-03-12 16:00:58,15.08832135,0.0001279,53.2183,302.8499,114.3637,245.7489,8.6898e-05,1.095e-05,0.0,0 STARLINK-3928,1 52606U 22052J   24072.66734769  .00001095  00000-0  86898-4 0  9991,2 52606  53.2183 302.8499 0001279 114.3637 245.7489 15.08832135101470,6917.904,95.438,540.654,538.885,0.0
52606.0,STARLINK-3928,PAYLOAD,2024-03-13 14:16:22,15.08839054,0.0001429,53.2147,298.6881,93.144,266.9716,0.00012643,1.725e-05,0.0,0 STARLINK-3928,1 52606U 22052J   24073.59470671  .00001725  00000-0  12643-3 0  9999,2 52606  53.2147 298.6881 0001429  93.1440 266.9716 15.08839054101240,6917.883,95.438,540.737,538.76,0.0
52606.0,STARLINK-3928,PAYLOAD,2024-03-13 23:48:41,15.08840048,0.0001436,53.2143,296.9036,91.6903,268.4253,0.00012134,1.644e-05,0.0,0 STARLINK-3928,1 52606U 22052J   24073.99214664  .00001644  00000-0  12134-3 0  9996,2 52606  53.2143 296.9036 0001436  91.6903 268.4253 15.08840048101679,6917.88,95.438,540.739,538.752,0.0
52606.0,STARLINK-3928,PAYLOAD,2024-03-14 22:04:04,15.08860302,8.9e-05,53.2172,292.742,86.0863,274.0231,-0.00027039,-4.591e-05,0.0,0 STARLINK-3928,1 52606U 22052J   24074.91950196 -.00004591  00000-0 -27039-3 0  9992,2 52606  53.2172 292.7420 0000890  86.0863 274.0231 15.08860302101447,6917.818,95.436,540.299,539.068,0.0
52606.0,STARLINK-3928,PAYLOAD,2024-03-14 23:39:28,15.08838875,0.0001274,53.2172,292.4432,89.825,270.2888,5.6495e-05,6.11e-06,0.0,0 STARLINK-3928,1 52606U 22052J   24074.98574915  .00000611  00000-0  56495-4 0  9996,2 52606  53.2172 292.4432 0001274  89.8250 270.2888 15.08838875101823,6917.884,95.438,540.63,538.867,0.0
52606.0,STARLINK-3928,PAYLOAD,2024-03-15 23:30:15,15.08844859,0.0001255,53.217,287.983,85.5827,274.5308,6.3006e-05,7.15e-06,0.0,0 STARLINK-3928,1 52606U 22052J   24075.97934487  .00000715  00000-0  63006-4 0  9991,2 52606  53.2170 287.9830 0001255  85.5827 274.5308 15.08844859101603,6917.866,95.437,540.599,538.862,0.0
52606.0,STARLINK-3928,PAYLOAD,2024-03-16 20:10:16,15.08837824,0.0001155,53.2168,284.1152,87.8194,272.2931,2.9366e-05,1.8e-06,0.0,0 STARLINK-3928,1 52606U 22052J   24076.84047118  .00000180  00000-0  29366-4 0  9991,2 52606  53.2168 284.1152 0001155  87.8194 272.2931 15.08837824102104,6917.887,95.438,540.551,538.953,0.0
52606.0,STARLINK-3928,PAYLOAD,2024-03-16 23:21:02,15.08839539,0.0001145,53.217,283.5182,94.1218,265.9905,3.9963e-05,3.48e-06,0.0,0 STARLINK-3928,1 52606U 22052J   24076.97294939  .00000348  00000-0  39963-4 0  9990,2 52606  53.2170 283.5182 0001145  94.1218 265.9905 15.08839539101755,6917.882,95.438,540.539,538.955,0.0
52606.0,STARLINK-3928,PAYLOAD,2024-03-17 20:01:03,15.08842816,0.0001283,53.2173,279.6536,84.9705,275.1433,0.00015344,2.155e-05,0.0,0 STARLINK-3928,1 52606U 22052J   24077.83406402  .00002155  00000-0  15344-3 0  9990,2 52606  53.2173 279.6536 0001283  84.9705 275.1433 15.08842816102255,6917.872,95.437,540.624,538.849,0.0
52606.0,STARLINK-3928,PAYLOAD,2024-03-18 13:30:17,15.0884276,0.0001395,53.2176,276.385,78.6396,281.4753,7.301e-05,8.74e-06,0.0,0 STARLINK-3928,1 52606U 22052J   24078.56270758  .00000874  00000-0  73010-4 0  9995,2 52606  53.2176 276.3850 0001395  78.6396 281.4753 15.08842760101994,6917.872,95.437,540.702,538.772,0.0
52606.0,STARLINK-3928,PAYLOAD,2024-03-19 19:42:37,15.08846955,0.0001453,53.218,270.7344,104.3378,255.7776,7.6366e-05,9.28e-06,0.0,0 STARLINK-3928,1 52606U 22052J   24079.82126220  .00000928  00000-0  76366-4 0  9996,2 52606  53.2180 270.7344 0001453 104.3378 255.7776 15.08846955102559,6917.859,95.437,540.729,538.719,0.0
52606.0,STARLINK-3928,PAYLOAD,2024-03-20 11:36:29,15.08835065,0.0002489,53.2186,267.7626,123.2857,236.8373,4.3515e-05,4.04e-06,0.0,0 STARLINK-3928,1 52606U 22052J   24080.48367100  .00000404  00000-0  43515-4 0  9993,2 52606  53.2186 267.7626 0002489 123.2857 236.8373 15.08835065102289,6917.895,95.438,541.482,538.039,0.0
52606.0,STARLINK-3928,PAYLOAD,2024-03-20 19:33:25,15.08835241,0.0001709,53.2181,266.2751,117.1262,242.9904,3.6852e-05,2.98e-06,0.0,0 STARLINK-3928,1 52606U 22052J   24080.81487292  .00000298  00000-0  36852-4 0  9992,2 52606  53.2181 266.2751 0001709 117.1262 242.9904 15.08835241102704,6917.895,95.438,540.942,538.578,0.0
